ONEWEB-0275             
1 48993U 21060AC  25268.30402686 -.00000090  00000+0 -27023-3 0  9991
2 48993  87.8966 281.5634 0001752  89.8025 270.3307 13.16594230204704
ONEWEB-0276             
1 48994U 21060AD  25268.10927360  .00000130  00000+0  30599-3 0  9996
2 48994  87.8970 281.5999 0001844  97.2150 262.9191 13.16596346204694
ONEWEB-0277             
1 48995U 21060AE  25268.12176942  .00000058  00000+0  11729-3 0  9994
2 48995  87.8962 281.6295 0001616  88.4710 271.6606 13.16641854204689
ONEWEB-0278             
1 48996U 21060AF  25268.26443764  .00000107  00000+0  24536-3 0  9994
2 48996  87.8971 281.5657 0002072  95.2795 264.8572 13.16592860204832
ONEWEB-0279             
1 48997U 21060AG  25268.12036080  .00000023  00000+0  27122-4 0  9991
2 48997  87.8970 281.5897 0001506  90.2417 269.8887 13.16593673204742
ONEWEB-0280             
1 48998U 21060AH  25268.28741077 -.00000004  00000+0 -42884-4 0  9991
2 48998  87.8969 281.5644 0001800 102.7944 257.3388 13.16594377204708
ONEWEB-0281             
1 48999U 21060AJ  25268.29295488 -.00000002  00000+0 -39326-4 0  9998
2 48999  87.8964 281.5595 0001833  86.6388 273.4953 13.16595461204776
ONEWEB-0282             
1 49000U 21060AK  25268.32301944  .00000046  00000+0  86913-4 0  9991
2 49000  87.8968 281.5641 0001733  96.9955 263.1373 13.16595712204758
